NORAD_CAT_ID,OBJECT_NAME,OBJECT_TYPE,EPOCH,MEAN_MOTION,ECCENTRICITY,INCLINATION,RA_OF_ASC_NODE,ARG_OF_PERICENTER,MEAN_ANOMALY,BSTAR,MEAN_MOTION_DOT,MEAN_MOTION_DDOT,TLE_LINE0,TLE_LINE1,TLE_LINE2,SEMIMAJOR_AXIS,PERIOD,APOGEE,PERIGEE,DECAYED
52339.0,STARLINK-3792,PAYLOAD,2024-01-30 01:57:10,15.08839335,0.0001916,53.2171,63.6702,83.4087,276.7123,7.9148e-05,9.72e-06,0.0,0 STARLINK-3792,1 52339U 22045J   24030.08137626  .00000972  00000-0  79148-4 0  9998,2 52339  53.2171  63.6702 0001916  83.4087 276.7123 15.08839335 99465,6917.882,95.438,541.073,538.422,0.0
52339.0,STARLINK-3792,PAYLOAD,2024-01-30 08:18:43,15.08841378,0.0001805,53.2174,62.4787,106.0098,254.1093,8.6803e-05,1.094e-05,0.0,0 STARLINK-3792,1 52339U 22045J   24030.34633371  .00001094  00000-0  86803-4 0  9997,2 52339  53.2174  62.4787 0001805 106.0098 254.1093 15.08841378 99500,6917.876,95.437,540.99,538.493,0.0
52339.0,STARLINK-3792,PAYLOAD,2024-01-31 11:20:16,15.08849249,0.0001595,53.2163,57.4239,90.8669,269.2506,0.00011927,1.611e-05,0.0,0 STARLINK-3792,1 52339U 22045J   24031.47241105  .00001611  00000-0  11927-3 0  9991,2 52339  53.2163  57.4239 0001595  90.8669 269.2506 15.08849249 99673,6917.852,95.437,540.821,538.614,0.0
52339.0,STARLINK-3792,PAYLOAD,2024-02-01 11:11:03,15.08842233,0.0001864,53.2182,52.9609,112.4655,247.6535,7.5388e-05,9.12e-06,0.0,0 STARLINK-3792,1 52339U 22045J   24032.46601322  .00000912  00000-0  75388-4 0  9997,2 52339  53.2182  52.9609 0001864 112.4655 247.6535 15.08842233 99825,6917.874,95.437,541.028,538.449,0.0
52339.0,STARLINK-3792,PAYLOAD,2024-02-02 11:01:50,15.08839864,0.0001777,53.2184,48.4992,106.7622,253.3566,4.2279e-05,3.85e-06,0.0,0 STARLINK-3792,1 52339U 22045J   24033.45961570  .00000385  00000-0  42279-4 0  9998,2 52339  53.2184  48.4992 0001777 106.7622 253.3566 15.08839864 99975,6917.881,95.438,540.975,538.516,0.0
52339.0,STARLINK-3792,PAYLOAD,2024-02-03 06:06:28,15.08839794,0.0001681,53.2182,44.9324,100.1056,260.0126,6.4003e-05,7.31e-06,0.0,0 STARLINK-3792,1 52339U 22045J   24034.25449714  .00000731  00000-0  64003-4 0  9992,2 52339  53.2182  44.9324 0001681 100.1056 260.0126 15.08839794100091,6917.881,95.438,540.909,538.583,0.0
52339.0,STARLINK-3792,PAYLOAD,2024-02-04 04:21:52,15.08836975,0.0001677,53.2181,40.7698,102.1866,257.9315,5.3366e-05,5.61e-06,0.0,0 STARLINK-3792,1 52339U 22045J   24035.18186038  .00000561  00000-0  53366-4 0  9993,2 52339  53.2181  40.7698 0001677 102.1866 257.9315 15.08836975100233,6917.89,95.438,540.915,538.595,0.0
52339.0,STARLINK-3792,PAYLOAD,2024-02-04 09:08:01,15.08840841,0.0001624,53.2184,39.8781,96.8406,263.2771,7.7651e-05,9.48e-06,0.0,0 STARLINK-3792,1 52339U 22045J   24035.38057855  .00000948  00000-0  77651-4 0  9991,2 52339  53.2184  39.8781 0001624  96.8406 263.2771 15.08840841100265,6917.878,95.438,540.866,538.619,0.0
52339.0,STARLINK-3792,PAYLOAD,2024-02-05 07:23:26,15.0883882,0.0001515,53.2184,35.7166,87.5052,272.6114,6.0678e-05,6.78e-06,0.0,0 STARLINK-3792,1 52339U 22045J   24036.30794329  .00000678  00000-0  60678-4 0  9999,2 52339  53.2184  35.7166 0001515  87.5052 272.6114 15.08838820100405,6917.884,95.438,540.797,538.701,0.0
52339.0,STARLINK-3792,PAYLOAD,2024-02-06 08:49:36,15.08836795,0.000163,53.2193,30.9529,75.2968,284.8204,0.00030907,4.634e-05,0.0,0 STARLINK-3792,1 52339U 22045J   24037.36778034  .00004634  00000-0  30907-3 0  9998,2 52339  53.2193  30.9529 0001630  75.2968 284.8204 15.08836795100564,6917.89,95.438,540.883,538.628,0.0
52339.0,STARLINK-3792,PAYLOAD,2024-02-07 08:40:22,15.08850528,0.0001819,53.2198,26.4883,71.9814,288.1377,0.00012455,1.695e-05,0.0,0 STARLINK-3792,1 52339U 22045J   24038.36137498  .00001695  00000-0  12455-3 0  9994,2 52339  53.2198  26.4883 0001819  71.9814 288.1377 15.08850528100719,6917.848,95.437,540.972,538.455,0.0
52339.0,STARLINK-3792,PAYLOAD,2024-02-07 16:37:18,15.08841163,0.0001178,53.2201,25.0066,94.7019,265.4107,6.0282e-05,6.72e-06,0.0,0 STARLINK-3792,1 52339U 22045J   24038.69257980  .00000672  00000-0  60282-4 0  9995,2 52339  53.2201  25.0066 0001178  94.7019 265.4107 15.08841163100769,6917.877,95.437,540.557,538.927,0.0
52339.0,STARLINK-3792,PAYLOAD,2024-02-08 08:31:09,15.08849122,0.0001529,53.2177,22.035,105.8132,254.3029,1.5811e-05,-3.6e-07,0.0,0 STARLINK-3792,1 52339U 22045J   24039.35497616 -.00000036  00000-0  15811-4 0  9994,2 52339  53.2177  22.0350 0001529 105.8132 254.3029 15.08849122100868,6917.853,95.437,540.775,538.66,0.0
52339.0,STARLINK-3792,PAYLOAD,2024-02-09 03:35:48,15.08840563,0.0001524,53.2186,18.465,100.0954,260.021,-3.715e-05,-8.79e-06,0.0,0 STARLINK-3792,1 52339U 22045J   24040.14986462 -.00000879  00000-0 -37150-4 0  9991,2 52339  53.2186  18.4650 0001524 100.0954 260.0210 15.08840563100983,6917.879,95.438,540.798,538.689,0.0
52339.0,STARLINK-3792,PAYLOAD,2024-02-09 05:11:11,15.0884265,0.000164,53.2191,18.1674,107.6874,252.4298,-1.7515e-05,-5.67e-06,0.0,0 STARLINK-3792,1 52339U 22045J   24040.21610273 -.00000567  00000-0 -17515-4 0  9990,2 52339  53.2191  18.1674 0001640 107.6874 252.4298 15.08842650100996,6917.872,95.437,540.872,538.603,0.0
52339.0,STARLINK-3792,PAYLOAD,2024-02-10 08:12:44,15.08839662,0.0001603,53.2189,13.1129,109.4968,250.6197,0.00011221,1.498e-05,0.0,0 STARLINK-3792,1 52339U 22045J   24041.34218568  .00001498  00000-0  11221-3 0  9995,2 52339  53.2189  13.1129 0001603 109.4968 250.6197 15.08839662101163,6917.881,95.438,540.855,538.637,0.0
52339.0,STARLINK-3792,PAYLOAD,2024-02-11 08:03:32,15.08815232,0.0001841,53.2188,8.6513,106.3269,253.7926,0.0005392,8.298e-05,0.0,0 STARLINK-3792,1 52339U 22045J   24042.33579521  .00008298  00000-0  53920-3 0  9991,2 52339  53.2188   8.6513 0001841 106.3269 253.7926 15.08815232101310,6917.956,95.439,541.095,538.548,0.0
52339.0,STARLINK-3792,PAYLOAD,2024-02-12 03:08:09,15.08848044,0.0001567,53.219,5.0867,91.6905,268.4267,6.3853e-05,7.29e-06,0.0,0 STARLINK-3792,1 52339U 22045J   24043.13066402  .00000729  00000-0  63853-4 0  9997,2 52339  53.2190   5.0867 0001567  91.6905 268.4267 15.08848044101435,6917.856,95.437,540.805,538.637,0.0
52339.0,STARLINK-3792,PAYLOAD,2024-02-12 06:18:55,15.08857907,0.0001561,53.2189,4.4879,95.8314,264.2856,0.00029639,4.434e-05,0.0,0 STARLINK-3792,1 52339U 22045J   24043.26313727  .00004434  00000-0  29639-3 0  9996,2 52339  53.2189   4.4879 0001561  95.8314 264.2856 15.08857907101451,6917.826,95.436,540.771,538.611,0.0
52339.0,STARLINK-3792,PAYLOAD,2024-02-13 02:58:56,15.08837051,0.0001734,53.219,0.6227,111.7963,248.3214,-2.0813e-05,-6.19e-06,0.0,0 STARLINK-3792,1 52339U 22045J   24044.12426629 -.00000619  00000-0 -20813-4 0  9997,2 52339  53.2190   0.6227 0001734 111.7963 248.3214 15.08837051101581,6917.889,95.438,540.954,538.555,0.0
52339.0,STARLINK-3792,PAYLOAD,2024-02-13 14:06:38,15.08833771,0.0001547,53.2194,358.5431,102.7756,257.3409,-2.7918e-05,-7.32e-06,0.0,0 STARLINK-3792,1 52339U 22045J   24044.58795092 -.00000732  00000-0 -27918-4 0  9999,2 52339  53.2194 358.5431 0001547 102.7756 257.3409 15.08833771101658,6917.899,95.438,540.835,538.694,0.0
52339.0,STARLINK-3792,PAYLOAD,2024-02-13 20:28:11,15.08833554,0.0001489,53.219,357.358,74.939,285.1766,2.523e-05,1.14e-06,0.0,0 STARLINK-3792,1 52339U 22045J   24044.85291365  .00000114  00000-0  25230-4 0  9990,2 52339  53.2190 357.3580 0001489  74.9390 285.1766 15.08833554101693,6917.9,95.438,540.795,538.735,0.0
52339.0,STARLINK-3792,PAYLOAD,2024-02-14 04:25:06,15.0885535,0.0001455,53.2204,355.8668,93.8077,266.3081,0.0001684,2.394e-05,0.0,0 STARLINK-3792,1 52339U 22045J   24045.18410038  .00002394  00000-0  16840-3 0  9995,2 52339  53.2204 355.8668 0001455  93.8077 266.3081 15.08855350101749,6917.833,95.437,540.705,538.692,0.0
52339.0,STARLINK-3792,PAYLOAD,2024-02-14 13:57:25,15.08845631,0.0001519,53.2187,354.0879,88.8022,271.3144,7.0435e-05,8.33e-06,0.0,0 STARLINK-3792,1 52339U 22045J   24045.58154838  .00000833  00000-0  70435-4 0  9999,2 52339  53.2187 354.0879 0001519  88.8022 271.3144 15.08845631101803,6917.863,95.437,540.779,538.677,0.0
52339.0,STARLINK-3792,PAYLOAD,2024-02-14 20:18:58,15.08835643,0.0001535,53.2179,352.8983,83.3627,276.754,0.00011359,1.52e-05,0.0,0 STARLINK-3792,1 52339U 22045J   24045.84651444  .00001520  00000-0  11359-3 0  9996,2 52339  53.2179 352.8983 0001535  83.3627 276.7540 15.08835643101840,6917.894,95.438,540.821,538.697,0.0
52339.0,STARLINK-3792,PAYLOAD,2024-02-15 02:40:31,15.0883938,0.0001325,53.2181,351.7076,100.2721,259.8421,8.5888e-05,1.079e-05,0.0,0 STARLINK-3792,1 52339U 22045J   24046.11147175  .00001079  00000-0  85888-4 0  9996,2 52339  53.2181 351.7076 0001325 100.2721 259.8421 15.08839380101881,6917.882,95.438,540.664,538.831,0.0
52339.0,STARLINK-3792,PAYLOAD,2024-02-15 20:09:45,15.08839361,0.0001647,53.2185,348.4373,91.9327,268.1854,8.6017e-05,1.081e-05,0.0,0 STARLINK-3792,1 52339U 22045J   24046.84011435  .00001081  00000-0  86017-4 0  9993,2 52339  53.2185 348.4373 0001647  91.9327 268.1854 15.08839361101997,6917.882,95.438,540.887,538.608,0.0
52339.0,STARLINK-3792,PAYLOAD,2024-02-16 02:31:18,15.08845231,0.0001499,53.2195,347.2474,92.0173,268.0991,4.3478e-05,4.04e-06,0.0,0 STARLINK-3792,1 52339U 22045J   24047.10507146  .00000404  00000-0  43478-4 0  9994,2 52339  53.2195 347.2474 0001499  92.0173 268.0991 15.08845231102033,6917.864,95.437,540.766,538.692,0.0
52339.0,STARLINK-3792,PAYLOAD,2024-02-16 05:42:03,15.08852867,0.0001389,53.2194,346.6497,101.0632,259.0516,6.1416e-05,6.9e-06,0.0,0 STARLINK-3792,1 52339U 22045J   24047.23754517  .00000690  00000-0  61416-4 0  9993,2 52339  53.2194 346.6497 0001389 101.0632 259.0516 15.08852867102057,6917.841,95.437,540.667,538.745,0.0
52339.0,STARLINK-3792,PAYLOAD,2024-02-17 00:46:42,15.08840076,0.000202,53.2193,343.0817,107.2886,252.8327,5.0265e-05,5.12e-06,0.0,0 STARLINK-3792,1 52339U 22045J   24048.03243503  .00000512  00000-0  50265-4 0  9993,2 52339  53.2193 343.0817 0002020 107.2886 252.8327 15.08840076102178,6917.88,95.438,541.143,538.348,0.0
